LEMUR-2-PETERG          
1 42841U 17042S   26068.48235713  .00023240  00000+0  81076-3 0  9993
2 42841  97.3980 253.6596 0003700 341.6938  18.4169 15.29611459473171
STARLINK-2533           
1 48294U 21036U   26068.31668540 -.00001691  00000+0 -44995-4 0  9997
2 48294  53.1612  76.9993 0001170 119.6807 240.4310 15.30195360268352
